[{"OBJECT_NAME":"PREFIRE-2","OBJECT_ID":"2024-099A","EPOCH":"2026-03-09T13:43:59.023488","MEAN_MOTION":15.2026253,"ECCENTRICITY":0.0011923,"INCLINATION":97.4208,"RA_OF_ASC_NODE":286.39,"ARG_OF_PERICENTER":187.6312,"MEAN_ANOMALY":172.4744,"EPHEMERIS_TYPE":0,"CLASSIFICATION_TYPE":"U","NORAD_CAT_ID":59881,"ELEMENT_SET_NO":999,"REV_AT_EPOCH":9899,"BSTAR":0.00023093563,"MEAN_MOTION_DOT":4.952e-5,"MEAN_MOTION_DDOT":0},{"OBJECT_NAME":"CZ-4C DEB","OBJECT_ID":"2018-031H","EPOCH":"2026-03-09T10:10:58.582560","MEAN_MOTION":15.14033759,"ECCENTRICITY":0.00199639,"INCLINATION":98.1663,"RA_OF_ASC_NODE":242.9335,"ARG_OF_PERICENTER":272.748,"MEAN_ANOMALY":87.1465,"EPHEMERIS_TYPE":0,"CLASSIFICATION_TYPE":"U","NORAD_CAT_ID":43266,"ELEMENT_SET_NO":999,"REV_AT_EPOCH":43166,"BSTAR":0.00079064643,"MEAN_MOTION_DOT":0.00014379,"MEAN_MOTION_DDOT":0}]
